[{"OBJECT_NAME":"ORBCOMM-X","OBJECT_ID":"1991-050C","EPOCH":"2026-03-05T13:59:53.249280","MEAN_MOTION":14.43513538,"ECCENTRICITY":0.00047941,"INCLINATION":98.3076,"RA_OF_ASC_NODE":130.4257,"ARG_OF_PERICENTER":111.3721,"MEAN_ANOMALY":248.7982,"EPHEMERIS_TYPE":0,"CLASSIFICATION_TYPE":"U","NORAD_CAT_ID":21576,"ELEMENT_SET_NO":999,"REV_AT_EPOCH":81982,"BSTAR":0.00014402782,"MEAN_MOTION_DOT":4.45e-6,"MEAN_MOTION_DDOT":0},{"OBJECT_NAME":"ORBCOMM FM01","OBJECT_ID":"1995-017A","EPOCH":"2026-03-05T14:01:11.379936","MEAN_MOTION":14.94558268,"ECCENTRICITY":0.00073165,"INCLINATION":69.9616,"RA_OF_ASC_NODE":140.2292,"ARG_OF_PERICENTER":278.8076,"MEAN_ANOMALY":81.2252,"EPHEMERIS_TYPE":0,"CLASSIFICATION_TYPE":"U","NORAD_CAT_ID":23545,"ELEMENT_SET_NO":999,"REV_AT_EPOCH":65150,"BSTAR":0.00075505172,"MEAN_MOTION_DOT":8.101e-5,"MEAN_MOTION_DDOT":0},{"OBJECT_NAME":"ORBCOMM FM02","OBJECT_ID":"1995-017B","EPOCH":"2026-03-05T13:23:26.666592","MEAN_MOTION":14.96643998,"ECCENTRICITY":0.00085564,"INCLINATION":69.9635,"RA_OF_ASC_NODE":158.3407,"ARG_OF_PERICENTER":279.4743,"MEAN_ANOMALY":80.5448,"EPHEMERIS_TYPE":0,"CLASSIFICATION_TYPE":"U","NORAD_CAT_ID":23546,"ELEMENT_SET_NO":999,"REV_AT_EPOCH":65118,"BSTAR":0.0010047885,"MEAN_MOTION_DOT":0.00011413,"MEAN_MOTION_DDOT":0},{"OBJECT_NAME":"ORBCOMM FM08","OBJECT_ID":"1997-084A","EPOCH":"2026-03-05T13:14:19.622400","MEAN_MOTION":14.46962026,"ECCENTRICITY":0.00067784,"INCLINATION":45.0124,"RA_OF_ASC_NODE":192.1279,"ARG_OF_PERICENTER":149.8503,"MEAN_ANOMALY":210.274,"EPHEMERIS_TYPE":0,"CLASSIFICATION_TYPE":"U","NORAD_CAT_ID":25112,"ELEMENT_SET_NO":999,"REV_AT_EPOCH":47921,"BSTAR":0.00074999278,"MEAN_MOTION_DOT":2.608e-5,"MEAN_MOTION_DDOT":0},{"OBJECT_NAME":"ORBCOMM FM10","OBJECT_ID":"1997-084B","EPOCH":"2026-03-05T13:49:08.294880","MEAN_MOTION":14.46689941,"ECCENTRICITY":0.0004358,"INCLINATION":45.0136,"RA_OF_ASC_NODE":194.9014,"ARG_OF_PERICENTER":119.7274,"MEAN_ANOMALY":240.4012,"EPHEMERIS_TYPE":0,"CLASSIFICATION_TYPE":"U","NORAD_CAT_ID":25113,"ELEMENT_SET_NO":999,"REV_AT_EPOCH":65435,"BSTAR":0.00080890969,"MEAN_MOTION_DOT":2.808e-5,"MEAN_MOTION_DDOT":0},{"OBJECT_NAME":"ORBCOMM FM11","OBJECT_ID":"1997-084C","EPOCH":"2026-03-05T13:22:52.438368","MEAN_MOTION":14.46423388,"ECCENTRICITY":0.00052047,"INCLINATION":45.0116,"RA_OF_ASC_NODE":196.1082,"ARG_OF_PERICENTER":117.7394,"MEAN_ANOMALY":242.3986,"EPHEMERIS_TYPE":0,"CLASSIFICATION_TYPE":"U","NORAD_CAT_ID":25114,"ELEMENT_SET_NO":999,"REV_AT_EPOCH":47930,"BSTAR":0.00070459297,"MEAN_MOTION_DOT":2.412e-5,"MEAN_MOTION_DDOT":0},{"OBJECT_NAME":"ORBCOMM FM12","OBJECT_ID":"1997-084D","EPOCH":"2026-03-05T15:42:04.814496","MEAN_MOTION":14.46452816,"ECCENTRICITY":0.00042338,"INCLINATION":45.0127,"RA_OF_ASC_NODE":195.3643,"ARG_OF_PERICENTER":119.7394,"MEAN_ANOMALY":240.388,"EPHEMERIS_TYPE":0,"CLASSIFICATION_TYPE":"U","NORAD_CAT_ID":25115,"ELEMENT_SET_NO":999,"REV_AT_EPOCH":47911,"BSTAR":0.00069918426,"MEAN_MOTION_DOT":2.394e-5,"MEAN_MOTION_DDOT":0},{"OBJECT_NAME":"ORBCOMM FM09","OBJECT_ID":"1997-084E","EPOCH":"2026-03-05T13:47:47.615424","MEAN_MOTION":14.4627645,"ECCENTRICITY":0.00051062,"INCLINATION":45.013,"RA_OF_ASC_NODE":196.9834,"ARG_OF_PERICENTER":101.0775,"MEAN_ANOMALY":259.0651,"EPHEMERIS_TYPE":0,"CLASSIFICATION_TYPE":"U","NORAD_CAT_ID":25116,"ELEMENT_SET_NO":999,"REV_AT_EPOCH":47930,"BSTAR":0.0006243007,"MEAN_MOTION_DOT":2.114e-5,"MEAN_MOTION_DDOT":0},{"OBJECT_NAME":"ORBCOMM FM05","OBJECT_ID":"1997-084F","EPOCH":"2026-03-05T13:35:28.515264","MEAN_MOTION":14.47073358,"ECCENTRICITY":0.00022172,"INCLINATION":45.0126,"RA_OF_ASC_NODE":192.0259,"ARG_OF_PERICENTER":145.143,"MEAN_ANOMALY":214.9568,"EPHEMERIS_TYPE":0,"CLASSIFICATION_TYPE":"U","NORAD_CAT_ID":25117,"ELEMENT_SET_NO":999,"REV_AT_EPOCH":47845,"BSTAR":0.00075496517,"MEAN_MOTION_DOT":2.632e-5,"MEAN_MOTION_DDOT":0},{"OBJECT_NAME":"ORBCOMM FM06","OBJECT_ID":"1997-084G","EPOCH":"2026-03-05T14:56:01.136832","MEAN_MOTION":14.47250354,"ECCENTRICITY":0.00015934,"INCLINATION":45.0125,"RA_OF_ASC_NODE":191.1676,"ARG_OF_PERICENTER":173.6815,"MEAN_ANOMALY":305.2016,"EPHEMERIS_TYPE":0,"CLASSIFICATION_TYPE":"U","NORAD_CAT_ID":25118,"ELEMENT_SET_NO":999,"REV_AT_EPOCH":47938,"BSTAR":0.0007904856,"MEAN_MOTION_DOT":2.774e-5,"MEAN_MOTION_DDOT":0},{"OBJECT_NAME":"ORBCOMM FM07","OBJECT_ID":"1997-084H","EPOCH":"2026-03-05T14:40:13.564704","MEAN_MOTION":14.47254351,"ECCENTRICITY":0.00027328,"INCLINATION":45.0118,"RA_OF_ASC_NODE":191.9605,"ARG_OF_PERICENTER":129.7714,"MEAN_ANOMALY":230.3379,"EPHEMERIS_TYPE":0,"CLASSIFICATION_TYPE":"U","NORAD_CAT_ID":25119,"ELEMENT_SET_NO":999,"REV_AT_EPOCH":47937,"BSTAR":0.00071544843,"MEAN_MOTION_DOT":2.497e-5,"MEAN_MOTION_DDOT":0},{"OBJECT_NAME":"ORBCOMM FM03","OBJECT_ID":"1998-007B","EPOCH":"2026-03-05T15:10:30.474624","MEAN_MOTION":14.35291791,"ECCENTRICITY":0.00431872,"INCLINATION":107.9636,"RA_OF_ASC_NODE":312.963,"ARG_OF_PERICENTER":152.978,"MEAN_ANOMALY":207.3621,"EPHEMERIS_TYPE":0,"CLASSIFICATION_TYPE":"U","NORAD_CAT_ID":25158,"ELEMENT_SET_NO":999,"REV_AT_EPOCH":46154,"BSTAR":0.00048786772,"MEAN_MOTION_DOT":1.282e-5,"MEAN_MOTION_DDOT":0},{"OBJECT_NAME":"ORBCOMM FM04","OBJECT_ID":"1998-007C","EPOCH":"2026-03-05T15:24:32.344128","MEAN_MOTION":14.3552009,"ECCENTRICITY":0.00389724,"INCLINATION":107.9622,"RA_OF_ASC_NODE":316.3791,"ARG_OF_PERICENTER":150.1755,"MEAN_ANOMALY":210.1617,"EPHEMERIS_TYPE":0,"CLASSIFICATION_TYPE":"U","NORAD_CAT_ID":25159,"ELEMENT_SET_NO":999,"REV_AT_EPOCH":46173,"BSTAR":0.00047005951,"MEAN_MOTION_DOT":1.234e-5,"MEAN_MOTION_DDOT":0},{"OBJECT_NAME":"ORBCOMM FM17","OBJECT_ID":"1998-046A","EPOCH":"2026-03-05T11:13:38.421120","MEAN_MOTION":14.35734239,"ECCENTRICITY":3.448e-5,"INCLINATION":44.9936,"RA_OF_ASC_NODE":103.8941,"ARG_OF_PERICENTER":96.9893,"MEAN_ANOMALY":263.0993,"EPHEMERIS_TYPE":0,"CLASSIFICATION_TYPE":"U","NORAD_CAT_ID":25413,"ELEMENT_SET_NO":999,"REV_AT_EPOCH":44071,"BSTAR":0.0004015108,"MEAN_MOTION_DOT":1.03e-5,"MEAN_MOTION_DDOT":0},{"OBJECT_NAME":"ORBCOMM FM18","OBJECT_ID":"1998-046B","EPOCH":"2026-03-05T02:50:42.462528","MEAN_MOTION":14.39431594,"ECCENTRICITY":0.00028005,"INCLINATION":44.9942,"RA_OF_ASC_NODE":15.7559,"ARG_OF_PERICENTER":171.3038,"MEAN_ANOMALY":188.786,"EPHEMERIS_TYPE":0,"CLASSIFICATION_TYPE":"U","NORAD_CAT_ID":25414,"ELEMENT_SET_NO":999,"REV_AT_EPOCH":44183,"BSTAR":0.00061865521,"MEAN_MOTION_DOT":1.802e-5,"MEAN_MOTION_DDOT":0},{"OBJECT_NAME":"ORBCOMM FM19","OBJECT_ID":"1998-046C","EPOCH":"2026-03-05T04:06:06.462432","MEAN_MOTION":14.39255382,"ECCENTRICITY":0.00015044,"INCLINATION":44.9955,"RA_OF_ASC_NODE":17.9007,"ARG_OF_PERICENTER":170.7729,"MEAN_ANOMALY":203.6177,"EPHEMERIS_TYPE":0,"CLASSIFICATION_TYPE":"U","NORAD_CAT_ID":25415,"ELEMENT_SET_NO":999,"REV_AT_EPOCH":44179,"BSTAR":0.00060015164,"MEAN_MOTION_DOT":1.737e-5,"MEAN_MOTION_DDOT":0}]
