ORBCOMM-X               
1 21576U 91050C   26064.58325520  .00000445  00000+0  14403-3 0  9991
2 21576  98.3076 130.4257 0004794 111.3721 248.7982 14.43513538819823
ORBCOMM FM01            
1 23545U 95017A   26064.58415949  .00008101  00000+0  75505-3 0  9998
2 23545  69.9616 140.2292 0007316 278.8076  81.2252 14.94558268651502
ORBCOMM FM02            
1 23546U 95017B   26064.55794753  .00011413  00000+0  10048-2 0  9999
2 23546  69.9635 158.3407 0008556 279.4743  80.5448 14.96643998651187
ORBCOMM FM08            
1 25112U 97084A   26064.55161600  .00002608  00000+0  74999-3 0  9997
2 25112  45.0124 192.1279 0006778 149.8503 210.2740 14.46962026479217
ORBCOMM FM10            
1 25113U 97084B   26064.57579045  .00002808  00000+0  80891-3 0  9996
2 25113  45.0136 194.9014 0004358 119.7274 240.4012 14.46689941654350
ORBCOMM FM11            
1 25114U 97084C   26064.55755137  .00002412  00000+0  70459-3 0  9993
2 25114  45.0116 196.1082 0005204 117.7394 242.3986 14.46423388479302
ORBCOMM FM12            
1 25115U 97084D   26064.65422239  .00002394  00000+0  69918-3 0  9996
2 25115  45.0127 195.3643 0004233 119.7394 240.3880 14.46452816479110
ORBCOMM FM09            
1 25116U 97084E   26064.57485666  .00002114  00000+0  62430-3 0  9993
2 25116  45.0130 196.9834 0005106 101.0775 259.0651 14.46276450479303
ORBCOMM FM05            
1 25117U 97084F   26064.56630226  .00002632  00000+0  75497-3 0  9999
2 25117  45.0126 192.0259 0002217 145.1430 214.9568 14.47073358478459
ORBCOMM FM06            
1 25118U 97084G   26064.62223538  .00002774  00000+0  79049-3 0  9995
2 25118  45.0125 191.1676 0001593 173.6815 305.2016 14.47250354479389
ORBCOMM FM07            
1 25119U 97084H   26064.61126811  .00002497  00000+0  71545-3 0  9996
2 25119  45.0118 191.9605 0002732 129.7714 230.3379 14.47254351479378
ORBCOMM FM03            
1 25158U 98007B   26064.63229716  .00001282  00000+0  48787-3 0  9998
2 25158 107.9636 312.9630 0043187 152.9780 207.3621 14.35291791461547
ORBCOMM FM04            
1 25159U 98007C   26064.64204102  .00001234  00000+0  47006-3 0  9992
2 25159 107.9622 316.3791 0038972 150.1755 210.1617 14.35520090461732
ORBCOMM FM17            
1 25413U 98046A   26064.46780580  .00001030  00000+0  40151-3 0  9995
2 25413  44.9936 103.8941 0000344  96.9893 263.0993 14.35734239440712
ORBCOMM FM18            
1 25414U 98046B   26064.11854702  .00001802  00000+0  61866-3 0  9999
2 25414  44.9942  15.7559 0002800 171.3038 188.7860 14.39431594441836
ORBCOMM FM19            
1 25415U 98046C   26064.17090813  .00001737  00000+0  60015-3 0  9993
2 25415  44.9955  17.9007 0001504 170.7729 203.6177 14.39255382441795
